OBJECT_NAME,OBJECT_ID,EPOCH,MEAN_MOTION,ECCENTRICITY,INCLINATION,RA_OF_ASC_NODE,ARG_OF_PERICENTER,MEAN_ANOMALY,EPHEMERIS_TYPE,CLASSIFICATION_TYPE,NORAD_CAT_ID,ELEMENT_SET_NO,REV_AT_EPOCH,BSTAR,MEAN_MOTION_DOT,MEAN_MOTION_DDOT
STARLINK-3979,2022-052L,2026-06-05T22:37:40.852416,15.08767975,.000145,53.1766,242.9105,166.7024,193.4006,0,U,52608,999,22418,-.5416E-3,-.888E-4,0
STARLINK-3997,2022-052M,2026-06-05T11:13:59.802528,15.08834798,.00021504,53.1769,245.0103,146.3266,213.7863,0,U,52609,999,22411,.15382207E-4,-.44E-6,0
STARLINK-3998,2022-052N,2026-06-05T12:30:11.109024,15.08838698,.00011117,53.1803,249.8019,85.9850,274.1269,0,U,52610,999,22404,-.7306621E-5,-.404E-5,0
STARLINK-3980,2022-052P,2026-06-05T12:19:35.290560,15.08835736,.00011567,53.1777,249.8366,80.3571,279.7552,0,U,52611,999,22404,.1525559E-5,-.264E-5,0
STARLINK-4002,2022-052Q,2026-06-05T17:46:11.092224,15.08838230,.00010237,53.1765,243.8155,52.0766,308.0319,0,U,52612,999,22415,-.10966717E-2,-.17698E-3,0
STARLINK-3982,2022-052S,2026-06-05T13:45:05.042592,15.53259903,.00014099,53.2061,169.4708,334.0005,26.0936,0,U,52614,999,22518,.13233513E-2,.85202E-3,0
STARLINK-4011,2022-052T,2026-06-05T23:21:58.938048,15.08840714,.0001197,53.1778,247.7671,101.9643,258.1483,0,U,52615,999,22410,-.27705E-4,-.729E-5,0
STARLINK-3996,2022-052V,2026-06-05T12:18:55.339200,15.08834746,.00012577,53.1754,234.8464,125.9900,234.1208,0,U,52617,999,22424,.4842984E-5,-.211E-5,0
STARLINK-3983,2022-052W,2026-06-05T12:24:13.962528,15.08806090,.00011649,53.1755,234.8209,68.3684,291.7431,0,U,52618,999,22424,.42181515E-3,.6426E-4,0
STARLINK-3741,2022-052X,2026-06-05T10:38:14.484480,15.08800631,.00008955,53.1751,235.1634,104.2255,255.8836,0,U,52619,999,22423,.43906465E-3,.6699E-4,0
STARLINK-3975,2022-052Y,2026-06-05T21:41:17.995200,15.08840082,.0001476,53.1759,248.0673,59.1327,300.9810,0,U,52620,999,22409,.17683E-4,-.7E-7,0
STARLINK-3984,2022-052Z,2026-06-05T12:03:01.475424,15.08833204,.00010773,53.1874,234.8893,88.7986,271.3129,0,U,52621,999,22424,-.7802703E-5,-.412E-5,0
STARLINK-4008,2022-052AA,2026-06-05T16:02:09.249504,15.08831658,.0001449,53.1779,249.1449,26.8772,333.2295,0,U,52622,999,22406,.7631046E-5,-.167E-5,0
STARLINK-3986,2022-052AB,2026-06-05T11:57:43.669440,15.08832846,.00008055,53.1874,234.9029,88.5156,271.5928,0,U,52623,999,22424,-.9261721E-5,-.435E-5,0
STARLINK-3988,2022-052AD,2026-06-05T11:52:22.648512,15.08871479,.00013138,53.1859,234.9247,65.3217,294.7912,0,U,52625,999,22424,.31145327E-3,.4677E-4,0
STARLINK-3990,2022-052AE,2026-06-05T12:08:19.310784,15.08839230,.00009154,53.1874,234.8709,86.4972,273.6125,0,U,52626,999,22424,.58988437E-4,.651E-5,0
STARLINK-3992,2022-052AF,2026-06-05T22:44:14.228160,15.08811796,.0001535,53.1773,232.8862,70.0485,290.0671,0,U,52627,999,22432,.44364E-3,.6774E-4,0
STARLINK-4001,2022-052AG,2026-06-05T11:10:42.066624,15.08833450,.00010519,53.1772,250.0655,100.2081,259.9030,0,U,52628,999,22403,.11992858E-4,-.97E-6,0
STARLINK-4022,2022-052AH,2026-06-05T22:33:37.599264,15.08833718,.0001298,53.1797,232.8742,111.2201,248.8929,0,U,52629,999,22431,-.25711E-4,-.697E-5,0
STARLINK-3989,2022-052AJ,2026-06-05T11:47:07.367136,15.08838613,.00016385,53.1767,234.9545,139.4698,220.6416,0,U,52630,999,22424,-.28381777E-4,-.74E-5,0
STARLINK-3794,2022-052AK,2026-06-05T22:35:00.959712,15.08832356,.0001275,53.1773,232.9243,79.4429,280.6707,0,U,52631,999,22432,-.46632E-4,-.103E-4,0
STARLINK-3995,2022-052AL,2026-06-05T22:49:31.495872,15.08836568,.0001368,53.1796,232.8649,105.6742,254.4400,0,U,52632,999,22432,.33313E-4,.242E-5,0
STARLINK-3994,2022-052AM,2026-06-05T20:42:21.093696,15.08829490,.0003652,53.1872,233.2658,47.2834,312.8465,0,U,52633,999,22431,-.53007E-4,-.1132E-4,0
STARLINK-3974,2022-052AN,2026-06-05T22:38:55.857120,15.08837838,.0001049,53.1776,232.9265,100.3149,259.7961,0,U,52634,999,22431,.56891E-4,.618E-5,0
STARLINK-3978,2022-052AP,2026-06-05T12:20:15.074304,15.08813374,.00009856,53.1774,224.8295,91.9101,268.2003,0,U,52635,999,22439,.30920462E-3,.4633E-4,0
STARLINK-3967,2022-052AQ,2026-06-05T11:20:36.138336,15.08868366,.00009812,53.1782,235.0246,75.5006,284.6094,0,U,52636,999,22424,.27162437E-3,.4041E-4,0
STARLINK-3961,2022-052AR,2026-06-05T12:14:57.346080,15.08785165,.00013334,53.1759,224.8474,74.0368,286.0771,0,U,52637,999,22519,.71372591E-3,.11072E-3,0
STARLINK-3941,2022-052AS,2026-06-05T11:15:20.085408,15.08833412,.00020683,53.1768,235.0592,149.2611,210.8502,0,U,52638,999,22505,.54338409E-4,.577E-5,0
STARLINK-3968,2022-052AT,2026-06-05T11:59:03.625728,15.08822626,.00020534,53.1773,224.8908,35.4574,324.6554,0,U,52639,999,22519,.40289425E-3,.6127E-4,0
STARLINK-3977,2022-052AU,2026-06-05T10:50:13.064640,15.08796529,.00013581,53.1854,225.1402,105.4048,254.7093,0,U,52640,999,22437,-.31152808E-3,-.5237E-4,0
