[ {"name": "STARLINK-3979", "line1": "1 52608U 22052L   26156.94283394 -.00008880  00000+0 -54160-3 0  9998", "line2": "2 52608  53.1766 242.9105 0001450 166.7024 193.4006 15.08767975224185"}, {"name": "STARLINK-3997", "line1": "1 52609U 22052M   26156.46805327 -.00000044  00000+0  15382-4 0  9999", "line2": "2 52609  53.1769 245.0103 0002150 146.3266 213.7863 15.08834798224119"}, {"name": "STARLINK-3998", "line1": "1 52610U 22052N   26156.52096191 -.00000404  00000+0 -73066-5 0  9994", "line2": "2 52610  53.1803 249.8019 0001111  85.9850 274.1269 15.08838698224047"}, {"name": "STARLINK-3980", "line1": "1 52611U 22052P   26156.51360290 -.00000264  00000+0  15256-5 0  9998", "line2": "2 52611  53.1777 249.8366 0001156  80.3571 279.7552 15.08835736224047"}, {"name": "STARLINK-4002", "line1": "1 52612U 22052Q   26156.74040616 -.00017698  00000+0 -10967-2 0  9992", "line2": "2 52612  53.1765 243.8155 0001023  52.0766 308.0319 15.08838230224151"}, {"name": "STARLINK-3982", "line1": "1 52614U 22052S   26156.57297503  .00085202  00000+0  13234-2 0  9998", "line2": "2 52614  53.2061 169.4708 0001409 334.0005  26.0936 15.53259903225187"}, {"name": "STARLINK-4011", "line1": "1 52615U 22052T   26156.97359882 -.00000729  00000+0 -27705-4 0  9995", "line2": "2 52615  53.1778 247.7671 0001197 101.9643 258.1483 15.08840714224106"}, {"name": "STARLINK-3996", "line1": "1 52617U 22052V   26156.51314050 -.00000211  00000+0  48430-5 0  9999", "line2": "2 52617  53.1754 234.8464 0001257 125.9900 234.1208 15.08834746224240"}, {"name": "STARLINK-3983", "line1": "1 52618U 22052W   26156.51682827  .00006426  00000+0  42182-3 0  9999", "line2": "2 52618  53.1755 234.8209 0001164  68.3684 291.7431 15.08806090224243"}, {"name": "STARLINK-3741", "line1": "1 52619U 22052X   26156.44322320  .00006699  00000+0  43906-3 0  9998", "line2": "2 52619  53.1751 235.1634 0000895 104.2255 255.8836 15.08800631224234"}, {"name": "STARLINK-3975", "line1": "1 52620U 22052Y   26156.90368050 -.00000007  00000+0  17683-4 0  9993", "line2": "2 52620  53.1759 248.0673 0001476  59.1327 300.9810 15.08840082224096"}, {"name": "STARLINK-3984", "line1": "1 52621U 22052Z   26156.50210041 -.00000412  00000+0 -78027-5 0  9997", "line2": "2 52621  53.1874 234.8893 0001077  88.7986 271.3129 15.08833204224247"}, {"name": "STARLINK-4008", "line1": "1 52622U 22052AA  26156.66816261 -.00000167  00000+0  76310-5 0  9990", "line2": "2 52622  53.1779 249.1449 0001449  26.8772 333.2295 15.08831658224060"}, {"name": "STARLINK-3986", "line1": "1 52623U 22052AB  26156.49842210 -.00000435  00000+0 -92617-5 0  9992", "line2": "2 52623  53.1874 234.9029 0000805  88.5156 271.5928 15.08832846224246"}, {"name": "STARLINK-3988", "line1": "1 52625U 22052AD  26156.49470658  .00004677  00000+0  31145-3 0  9994", "line2": "2 52625  53.1859 234.9247 0001313  65.3217 294.7912 15.08871479224244"}, {"name": "STARLINK-3990", "line1": "1 52626U 22052AE  26156.50577906  .00000651  00000+0  58988-4 0  9994", "line2": "2 52626  53.1874 234.8709 0000915  86.4972 273.6125 15.08839230224244"}, {"name": "STARLINK-3992", "line1": "1 52627U 22052AF  26156.94738690  .00006774  00000+0  44364-3 0  9996", "line2": "2 52627  53.1773 232.8862 0001535  70.0485 290.0671 15.08811796224323"}, {"name": "STARLINK-4001", "line1": "1 52628U 22052AG  26156.46576466 -.00000097  00000+0  11993-4 0  9991", "line2": "2 52628  53.1772 250.0655 0001051 100.2081 259.9030 15.08833450224038"}, {"name": "STARLINK-4022", "line1": "1 52629U 22052AH  26156.94001851 -.00000697  00000+0 -25711-4 0  9996", "line2": "2 52629  53.1797 232.8742 0001298 111.2201 248.8929 15.08833718224312"}, {"name": "STARLINK-3989", "line1": "1 52630U 22052AJ  26156.49105749 -.00000740  00000+0 -28382-4 0  9995", "line2": "2 52630  53.1767 234.9545 0001638 139.4698 220.6416 15.08838613224245"}, {"name": "STARLINK-3794", "line1": "1 52631U 22052AK  26156.94098333 -.00001030  00000+0 -46632-4 0  9997", "line2": "2 52631  53.1773 232.9243 0001275  79.4429 280.6707 15.08832356224324"}, {"name": "STARLINK-3995", "line1": "1 52632U 22052AL  26156.95105898  .00000242  00000+0  33313-4 0  9998", "line2": "2 52632  53.1796 232.8649 0001368 105.6742 254.4400 15.08836568224320"}, {"name": "STARLINK-3994", "line1": "1 52633U 22052AM  26156.86274414 -.00001132  00000+0 -53007-4 0  9993", "line2": "2 52633  53.1872 233.2658 0003652  47.2834 312.8465 15.08829490224317"}, {"name": "STARLINK-3974", "line1": "1 52634U 22052AN  26156.94370205  .00000618  00000+0  56891-4 0  9998", "line2": "2 52634  53.1776 232.9265 0001049 100.3149 259.7961 15.08837838224314"}, {"name": "STARLINK-3978", "line1": "1 52635U 22052AP  26156.51406336  .00004633  00000+0  30920-3 0  9992", "line2": "2 52635  53.1774 224.8295 0000985  91.9101 268.2003 15.08813374224396"}, {"name": "STARLINK-3967", "line1": "1 52636U 22052AQ  26156.47264049  .00004041  00000+0  27162-3 0  9998", "line2": "2 52636  53.1782 235.0246 0000981  75.5006 284.6094 15.08868366224241"}, {"name": "STARLINK-3961", "line1": "1 52637U 22052AR  26156.51038595  .00011072  00000+0  71373-3 0  9994", "line2": "2 52637  53.1759 224.8474 0001333  74.0368 286.0771 15.08785165225190"}, {"name": "STARLINK-3941", "line1": "1 52638U 22052AS  26156.46898247  .00000577  00000+0  54338-4 0  9998", "line2": "2 52638  53.1768 235.0592 0002068 149.2611 210.8502 15.08833412225059"}, {"name": "STARLINK-3968", "line1": "1 52639U 22052AT  26156.49934752  .00006127  00000+0  40289-3 0  9990", "line2": "2 52639  53.1773 224.8908 0002053  35.4574 324.6554 15.08822626225192"}, {"name": "STARLINK-3977", "line1": "1 52640U 22052AU  26156.45154010 -.00005237  00000+0 -31153-3 0  9992", "line2": "2 52640  53.1854 225.1402 0001358 105.4048 254.7093 15.08796529224370"}]